      2.10          N: GNSS NAV DATA                        RINEX VERSION / TYPE
fic2rin                                 05/07/2024 00:59:02 PGM / RUN BY / DATE
                                                            END OF HEADER
17 24  5  6  2  0  0.0  .708430539817D-03 -.250111042988D-11  .000000000000D+00
     .210000000000D+02 -.320312500000D+02  .461662087222D-08  .170161808178D+01
    -.179931521416D-05  .134015303338D-01  .134669244289D-05  .515371745110D+04
     .936000000000D+05  .260770320892D-06  .141179441449D+01 -.156462192535D-06
     .968952460965D+00  .355375000000D+03 -.132386746860D+01 -.843106547343D-08
    -.796461747257D-10  .100000000000D+01  .231300000000D+04  .000000000000D+00
     .240000000000D+01  .000000000000D+00 -.111758708954D-07  .210000000000D+02
     .864000000000D+05  .400000000000D+01
19 24  5  6  2  0  0.0  .478025060147D-03  .534328137292D-11  .000000000000D+00
     .120000000000D+02 -.387187500000D+02  .463519307440D-08 -.257585932450D+01
    -.164285302162D-05  .978455785662D-02  .162608921528D-05  .515369998169D+04
     .936000000000D+05 -.633299350739D-07  .145615981760D+01  .156462192535D-06
     .968123826129D+00  .351062500000D+03  .252615602298D+01 -.839892127736D-08
    -.835749098019D-10  .100000000000D+01  .231300000000D+04  .000000000000D+00
     .240000000000D+01  .000000000000D+00 -.153668224812D-07  .120000000000D+02
     .864000000000D+05  .400000000000D+01
22 24  5  6  2  0  0.0 -.957492738962D-05 -.534328137292D-11  .000000000000D+00
     .630000000000D+02  .132250000000D+03  .427089218552D-08  .221613887967D+01
     .680424273014D-05  .143195650307D-01  .801309943199D-05  .515371146393D+04
     .936000000000D+05  .147148966789D-06  .393696965916D+00  .391155481339D-07
     .961788308286D+00  .220906250000D+03 -.113668908554D+01 -.789747181854D-08
     .341442793891D-09  .100000000000D+01  .231300000000D+04  .000000000000D+00
     .240000000000D+01  .000000000000D+00 -.111758708954D-07  .630000000000D+02
     .864000000000D+05  .400000000000D+01
15 24  5  6  2  0  0.0  .155929476023D-03  .409272615798D-11  .000000000000D+00
     .610000000000D+02 -.937500000000D-01  .593489006914D-08  .735487750714D+00
     .162050127983D-06  .155504448339D-01  .409223139286D-05  .515363698769D+04
     .936000000000D+05 -.175088644028D-06 -.194269941650D+01  .726431608200D-07
     .934785308486D+00  .292843750000D+03  .130656628988D+01 -.914395231089D-08
    -.692886004340D-10  .100000000000D+01  .231300000000D+04  .000000000000D+00
     .240000000000D+01  .000000000000D+00 -.102445483208D-07  .610000000000D+02
     .864000000000D+05  .400000000000D+01
31 24  5  6  2  0  0.0 -.227905809879D-03  .113686837722D-12  .000000000000D+00
     .650000000000D+02 -.107500000000D+02  .441982696068D-08 -.203695439156D+01
    -.661239027977D-06  .104858827544D-01  .122468918562D-04  .515372215080D+04
     .936000000000D+05  .111758708954D-06 -.721182898860D+00 -.856816768646D-07
     .954376473337D+00  .139218750000D+03  .673561894454D+00 -.781425406648D-08
    -.448232956416D-09  .100000000000D+01  .231300000000D+04  .000000000000D+00
     .240000000000D+01  .000000000000D+00 -.135041773319D-07  .650000000000D+02
     .864000000000D+05  .400000000000D+01
32 24  5  6  2  0  0.0 -.618406571448D-03  .113686837722D-12  .000000000000D+00
     .490000000000D+02 -.258750000000D+02  .503592405216D-08  .241079526401D+01
    -.152923166752D-05  .776764913462D-02  .414438545704D-05  .515366039658D+04
     .936000000000D+05 -.391155481339D-07 -.180074076900D+01 -.139698386192D-06
     .961327957225D+00  .298031250000D+03 -.213435056041D+01 -.829641700764D-08
    -.257153568621D-09  .100000000000D+01  .231300000000D+04  .000000000000D+00
     .240000000000D+01  .000000000000D+00  .931322574615D-09  .490000000000D+02
     .864000000000D+05  .400000000000D+01
29 24  5  6  2  0  0.0 -.599482096732D-03  .136424205266D-11  .000000000000D+00
     .740000000000D+02 -.348750000000D+02  .455233248006D-08  .171523292638D+01
    -.180117785931D-05  .287447765004D-02  .189617276192D-05  .515359996033D+04
     .936000000000D+05  .186264514923D-07  .142675878346D+01  .130385160446D-07
     .971361541793D+00  .348218750000D+03  .252007325935D+01 -.842035074141D-08
    -.130362572982D-09  .100000000000D+01  .231300000000D+04  .000000000000D+00
     .340000000000D+01  .000000000000D+00 -.977888703346D-08  .740000000000D+02
     .864000000000D+05  .400000000000D+01
20 24  5  6  2  0  0.0  .377628486603D-03 -.136424205266D-11  .000000000000D+00
     .790000000000D+02  .195625000000D+02  .472591113888D-08  .150405053728D+00
     .104680657387D-05  .361891090870D-02  .117383897305D-04  .515378123283D+04
     .936000000000D+05  .111758708954D-07 -.301408097166D+01 -.558793544769D-08
     .953831208658D+00  .152937500000D+03 -.259630518754D+01 -.807426489697D-08
     .539665336370D-09  .100000000000D+01  .231300000000D+04  .000000000000D+00
     .240000000000D+01  .000000000000D+00 -.838190317154D-08  .790000000000D+02
     .864000000000D+05  .400000000000D+01
14 24  5  6  2  0  0.0  .393672846258D-03  .943600753089D-11  .000000000000D+00
     .830000000000D+02  .127406250000D+03  .461483508355D-08 -.189450570892D+01
     .653602182865D-05  .440330209676D-02  .891648232937D-05  .515370368385D+04
     .936000000000D+05 -.633299350739D-07  .328423786318D+00 -.800937414169D-07
     .946344181182D+00  .201093750000D+03 -.292480764081D+01 -.819855578847D-08
     .478591363823D-09  .100000000000D+01  .231300000000D+04  .000000000000D+00
     .240000000000D+01  .000000000000D+00 -.791624188423D-08  .830000000000D+02
     .864000000000D+05  .400000000000D+01
21 24  5  6  2  0  0.0  .123301055282D-03 -.216004991671D-11  .000000000000D+00
     .183000000000D+03 -.114750000000D+03  .436053877680D-08  .155601823703D+01
    -.583939254284D-05  .251750824973D-01  .999495387077D-05  .515369757271D+04
     .936000000000D+05  .340864062309D-06  .230774241519D+01  .294297933578D-06
     .961693787686D+00  .186375000000D+03 -.578658444384D+00 -.783604068826D-08
    -.521093134192D-09  .100000000000D+01  .231300000000D+04  .000000000000D+00
     .240000000000D+01  .000000000000D+00 -.102445483208D-07  .183000000000D+03
     .864000000000D+05  .400000000000D+01
26 24  5  6  2  0  0.0  .157025177032D-03 -.545696821064D-11  .000000000000D+00
     .177000000000D+03  .133593750000D+03  .490663295239D-08 -.274314444282D+01
     .683218240738D-05  .884032004979D-02  .896677374840D-05  .515363846588D+04
     .936000000000D+05  .242143869400D-07  .224165099479D+00  .745058059692D-08
     .931748878646D+00  .192656250000D+03  .541792415783D+00 -.824641492485D-08
     .405374028313D-09  .100000000000D+01  .231300000000D+04  .000000000000D+00
     .240000000000D+01  .000000000000D+00  .651925802231D-08  .177000000000D+03
     .864000000000D+05  .400000000000D+01
25 24  5  6  2  0  0.0  .495188869536D-03  .682121026330D-12  .000000000000D+00
     .117000000000D+03  .123312500000D+03  .449232998072D-08 -.193248369424D+01
     .640191137791D-05  .117412767140D-01  .843778252602D-05  .515358393860D+04
     .936000000000D+05  .204890966415D-06  .286223599985D+00 -.596046447754D-07
     .950961282303D+00  .211812500000D+03  .109041748993D+01 -.802640576059D-08
     .333585323739D-09  .100000000000D+01  .231300000000D+04  .000000000000D+00
     .240000000000D+01  .000000000000D+00  .512227416039D-08  .117000000000D+03
     .864000000000D+05  .400000000000D+01
28 24  5  6  2  0  0.0 -.231884419918D-03 -.159161572810D-10  .000000000000D+00
     .197000000000D+03 -.147500000000D+02  .429660754238D-08 -.261041206854D+01
    -.797212123871D-06  .391300185584D-03  .120904296637D-04  .515364564514D+04
     .936000000000D+05  .242143869400D-07 -.775932044753D+00 -.558793544769D-08
     .961445220350D+00  .149156250000D+03  .174167559637D+01 -.784282668521D-08
    -.617168564691D-09  .100000000000D+01  .231300000000D+04  .000000000000D+00
     .240000000000D+01  .000000000000D+00 -.931322574615D-08  .453000000000D+03
     .864000000000D+05  .400000000000D+01
18 24  5  6  2  0  0.0 -.606111716479D-03 -.602540239925D-11  .000000000000D+00
     .145000000000D+03 -.945937500000D+02  .399659504565D-08 -.289775203740D+00
    -.489689409733D-05  .404200865887D-02  .109076499939D-04  .515361710930D+04
     .936000000000D+05  .558793544769D-07  .241699517081D+01  .372529029846D-07
     .974642337468D+00  .176281250000D+03 -.304877724259D+01 -.786639909567D-08
    -.132505519387D-09  .100000000000D+01  .231300000000D+04  .000000000000D+00
     .240000000000D+01  .000000000000D+00 -.838190317154D-08  .401000000000D+03
     .864000000000D+05  .400000000000D+01
11 24  5  6  2  0  0.0 -.654948875308D-03 -.966338120634D-11  .000000000000D+00
     .177000000000D+03 -.103968750000D+03  .425482008748D-08  .970072200407D+00
    -.559724867344D-05  .126186537091D-02  .108722597361D-04  .515370606804D+04
     .936000000000D+05 -.149011611938D-07  .244615095697D+01  .186264514923D-08
     .966348493116D+00  .172812500000D+03 -.255758706954D+01 -.794247369305D-08
    -.140362989539D-09  .100000000000D+01  .231300000000D+04  .000000000000D+00
     .240000000000D+01  .000000000000D+00 -.884756445885D-08  .945000000000D+03
     .864000000000D+05  .400000000000D+01
